1 08820U 76039A   03132.72308612  .00000022  00000-0  10000-3 0  9203
2 08820 109.8093 169.4657 0044444 309.0019  50.6784  6.38664510374799
